CCSDS_OMM_VERS = 2.0
CREATION_DATE  = 
ORIGINATOR     = 

OBJECT_NAME    = SEASAT 1
OBJECT_ID      = 1978-064A
CENTER_NAME    = EARTH
REF_FRAME      = TEME
TIME_SYSTEM    = UTC
MEAN_ELEMENT_THEORY = SGP/SGP4

EPOCH          = 2025-12-16T19:59:22.246368
MEAN_MOTION    = 14.46066350
ECCENTRICITY   = .00015435
INCLINATION    = 108.0121
RA_OF_ASC_NODE = 311.6213
ARG_OF_PERICENTER = 251.7067
MEAN_ANOMALY   = 108.3911

EPHEMERIS_TYPE = 0
CLASSIFICATION_TYPE = U
NORAD_CAT_ID   = 10967
ELEMENT_SET_NO = 999
REV_AT_EPOCH   = 49453
BSTAR          = .12911876E-3
MEAN_MOTION_DOT = .324E-5
MEAN_MOTION_DDOT = 0

CCSDS_OMM_VERS = 2.0
CREATION_DATE  = 
ORIGINATOR     = 

OBJECT_NAME    = SL-14 R/B
OBJECT_ID      = 1979-011B
CENTER_NAME    = EARTH
REF_FRAME      = TEME
TIME_SYSTEM    = UTC
MEAN_ELEMENT_THEORY = SGP/SGP4

EPOCH          = 2025-12-16T22:43:18.989184
MEAN_MOTION    = 14.91774669
ECCENTRICITY   = .00155297
INCLINATION    = 82.5233
RA_OF_ASC_NODE = 175.0542
ARG_OF_PERICENTER = 339.1063
MEAN_ANOMALY   = 20.9520

EPHEMERIS_TYPE = 0
CLASSIFICATION_TYPE = U
NORAD_CAT_ID   = 11267
ELEMENT_SET_NO = 999
REV_AT_EPOCH   = 51644
BSTAR          = .52864077E-4
MEAN_MOTION_DOT = .559E-5
MEAN_MOTION_DDOT = 0

CCSDS_OMM_VERS = 2.0
CREATION_DATE  = 
ORIGINATOR     = 

OBJECT_NAME    = SL-8 R/B
OBJECT_ID      = 1979-089B
CENTER_NAME    = EARTH
REF_FRAME      = TEME
TIME_SYSTEM    = UTC
MEAN_ELEMENT_THEORY = SGP/SGP4

EPOCH          = 2025-12-16T23:57:10.354464
MEAN_MOTION    = 14.42286683
ECCENTRICITY   = .00145508
INCLINATION    = 74.0687
RA_OF_ASC_NODE = 244.0982
ARG_OF_PERICENTER = 76.7111
MEAN_ANOMALY   = 283.5668

EPHEMERIS_TYPE = 0
CLASSIFICATION_TYPE = U
NORAD_CAT_ID   = 11574
ELEMENT_SET_NO = 999
REV_AT_EPOCH   = 42418
BSTAR          = .84945524E-4
MEAN_MOTION_DOT = .254E-5
MEAN_MOTION_DDOT = 0

CCSDS_OMM_VERS = 2.0
CREATION_DATE  = 
ORIGINATOR     = 

OBJECT_NAME    = SL-14 R/B
OBJECT_ID      = 1980-005B
CENTER_NAME    = EARTH
REF_FRAME      = TEME
TIME_SYSTEM    = UTC
MEAN_ELEMENT_THEORY = SGP/SGP4

EPOCH          = 2025-12-16T13:40:38.860608
MEAN_MOTION    = 14.90796251
ECCENTRICITY   = .00173678
INCLINATION    = 82.5146
RA_OF_ASC_NODE = 26.0667
ARG_OF_PERICENTER = 81.8588
MEAN_ANOMALY   = 278.4600

EPHEMERIS_TYPE = 0
CLASSIFICATION_TYPE = U
NORAD_CAT_ID   = 11672
ELEMENT_SET_NO = 999
REV_AT_EPOCH   = 46410
BSTAR          = .51478282E-4
MEAN_MOTION_DOT = .533E-5
MEAN_MOTION_DDOT = 0

CCSDS_OMM_VERS = 2.0
CREATION_DATE  = 
ORIGINATOR     = 

OBJECT_NAME    = SL-8 R/B
OBJECT_ID      = 1981-003B
CENTER_NAME    = EARTH
REF_FRAME      = TEME
TIME_SYSTEM    = UTC
MEAN_ELEMENT_THEORY = SGP/SGP4

EPOCH          = 2025-12-16T18:54:26.856576
MEAN_MOTION    = 15.07154842
ECCENTRICITY   = .02791017
INCLINATION    = 82.9306
RA_OF_ASC_NODE = 6.4783
ARG_OF_PERICENTER = 106.3028
MEAN_ANOMALY   = 256.9091

EPHEMERIS_TYPE = 0
CLASSIFICATION_TYPE = U
NORAD_CAT_ID   = 12139
ELEMENT_SET_NO = 999
REV_AT_EPOCH   = 30217
BSTAR          = .351631E-3
MEAN_MOTION_DOT = .13301E-3
MEAN_MOTION_DDOT = 0

CCSDS_OMM_VERS = 2.0
CREATION_DATE  = 
ORIGINATOR     = 

OBJECT_NAME    = SL-3 R/B
OBJECT_ID      = 1981-046B
CENTER_NAME    = EARTH
REF_FRAME      = TEME
TIME_SYSTEM    = UTC
MEAN_ELEMENT_THEORY = SGP/SGP4

EPOCH          = 2025-12-16T18:55:51.392064
MEAN_MOTION    = 15.39690689
ECCENTRICITY   = .00185806
INCLINATION    = 81.2331
RA_OF_ASC_NODE = 29.0946
ARG_OF_PERICENTER = 309.8571
MEAN_ANOMALY   = 50.1035

EPHEMERIS_TYPE = 0
CLASSIFICATION_TYPE = U
NORAD_CAT_ID   = 12465
ELEMENT_SET_NO = 999
REV_AT_EPOCH   = 42566
BSTAR          = .23112875E-3
MEAN_MOTION_DOT = .9212E-4
MEAN_MOTION_DDOT = 0

CCSDS_OMM_VERS = 2.0
CREATION_DATE  = 
ORIGINATOR     = 

OBJECT_NAME    = SL-3 R/B
OBJECT_ID      = 1981-103B
CENTER_NAME    = EARTH
REF_FRAME      = TEME
TIME_SYSTEM    = UTC
MEAN_ELEMENT_THEORY = SGP/SGP4

EPOCH          = 2025-12-16T22:31:05.488608
MEAN_MOTION    = 15.20282846
ECCENTRICITY   = .00119773
INCLINATION    = 81.1589
RA_OF_ASC_NODE = 310.4360
ARG_OF_PERICENTER = 197.9047
MEAN_ANOMALY   = 162.1764

EPHEMERIS_TYPE = 0
CLASSIFICATION_TYPE = U
NORAD_CAT_ID   = 12904
ELEMENT_SET_NO = 999
REV_AT_EPOCH   = 96065
BSTAR          = .20831251E-3
MEAN_MOTION_DOT = .4555E-4
MEAN_MOTION_DDOT = 0

CCSDS_OMM_VERS = 2.0
CREATION_DATE  = 
ORIGINATOR     = 

OBJECT_NAME    = SL-3 R/B
OBJECT_ID      = 1982-013B
CENTER_NAME    = EARTH
REF_FRAME      = TEME
TIME_SYSTEM    = UTC
MEAN_ELEMENT_THEORY = SGP/SGP4

EPOCH          = 2025-12-16T22:03:44.134848
MEAN_MOTION    = 15.21122413
ECCENTRICITY   = .00241536
INCLINATION    = 81.1752
RA_OF_ASC_NODE = 257.7169
ARG_OF_PERICENTER = 97.3944
MEAN_ANOMALY   = 263.0033

EPHEMERIS_TYPE = 0
CLASSIFICATION_TYPE = U
NORAD_CAT_ID   = 13068
ELEMENT_SET_NO = 999
REV_AT_EPOCH   = 39176
BSTAR          = .1474155E-3
MEAN_MOTION_DOT = .3331E-4
MEAN_MOTION_DDOT = 0

CCSDS_OMM_VERS = 2.0
CREATION_DATE  = 
ORIGINATOR     = 

OBJECT_NAME    = SL-3 R/B
OBJECT_ID      = 1982-039B
CENTER_NAME    = EARTH
REF_FRAME      = TEME
TIME_SYSTEM    = UTC
MEAN_ELEMENT_THEORY = SGP/SGP4

EPOCH          = 2025-12-16T22:44:56.724864
MEAN_MOTION    = 15.09550681
ECCENTRICITY   = .00295138
INCLINATION    = 81.1712
RA_OF_ASC_NODE = 311.2557
ARG_OF_PERICENTER = 238.0208
MEAN_ANOMALY   = 121.8148

EPHEMERIS_TYPE = 0
CLASSIFICATION_TYPE = U
NORAD_CAT_ID   = 13154
ELEMENT_SET_NO = 999
REV_AT_EPOCH   = 36915
BSTAR          = .13964959E-3
MEAN_MOTION_DOT = .2286E-4
MEAN_MOTION_DDOT = 0

CCSDS_OMM_VERS = 2.0
CREATION_DATE  = 
ORIGINATOR     = 

OBJECT_NAME    = SL-3 R/B
OBJECT_ID      = 1982-079B
CENTER_NAME    = EARTH
REF_FRAME      = TEME
TIME_SYSTEM    = UTC
MEAN_ELEMENT_THEORY = SGP/SGP4

EPOCH          = 2025-12-16T22:47:35.294784
MEAN_MOTION    = 15.23637593
ECCENTRICITY   = .002709
INCLINATION    = 81.1470
RA_OF_ASC_NODE = 290.6977
ARG_OF_PERICENTER = 85.5392
MEAN_ANOMALY   = 274.8934

EPHEMERIS_TYPE = 0
CLASSIFICATION_TYPE = U
NORAD_CAT_ID   = 13403
ELEMENT_SET_NO = 999
REV_AT_EPOCH   = 36509
BSTAR          = .18753895E-3
MEAN_MOTION_DOT = .4565E-4
MEAN_MOTION_DDOT = 0

CCSDS_OMM_VERS = 2.0
CREATION_DATE  = 
ORIGINATOR     = 

OBJECT_NAME    = SL-14 R/B
OBJECT_ID      = 1982-092B
CENTER_NAME    = EARTH
REF_FRAME      = TEME
TIME_SYSTEM    = UTC
MEAN_ELEMENT_THEORY = SGP/SGP4

EPOCH          = 2025-12-16T17:16:30.622368
MEAN_MOTION    = 14.86559616
ECCENTRICITY   = .0019438
INCLINATION    = 82.5679
RA_OF_ASC_NODE = 218.9898
ARG_OF_PERICENTER = 213.0903
MEAN_ANOMALY   = 211.1916

EPHEMERIS_TYPE = 0
CLASSIFICATION_TYPE = U
NORAD_CAT_ID   = 13553
ELEMENT_SET_NO = 999
REV_AT_EPOCH   = 31660
BSTAR          = .4760472E-4
MEAN_MOTION_DOT = .447E-5
MEAN_MOTION_DDOT = 0

CCSDS_OMM_VERS = 2.0
CREATION_DATE  = 
ORIGINATOR     = 

OBJECT_NAME    = SL-3 R/B
OBJECT_ID      = 1983-010B
CENTER_NAME    = EARTH
REF_FRAME      = TEME
TIME_SYSTEM    = UTC
MEAN_ELEMENT_THEORY = SGP/SGP4

EPOCH          = 2025-12-16T18:59:32.138880
MEAN_MOTION    = 15.43567648
ECCENTRICITY   = .00169605
INCLINATION    = 81.1041
RA_OF_ASC_NODE = 103.6727
ARG_OF_PERICENTER = 336.9448
MEAN_ANOMALY   = 23.1032

EPHEMERIS_TYPE = 0
CLASSIFICATION_TYPE = U
NORAD_CAT_ID   = 13819
ELEMENT_SET_NO = 999
REV_AT_EPOCH   = 34514
BSTAR          = .26160287E-3
MEAN_MOTION_DOT = .11844E-3
MEAN_MOTION_DDOT = 0

CCSDS_OMM_VERS = 2.0
CREATION_DATE  = 
ORIGINATOR     = 

OBJECT_NAME    = SL-3 R/B
OBJECT_ID      = 1983-075B
CENTER_NAME    = EARTH
REF_FRAME      = TEME
TIME_SYSTEM    = UTC
MEAN_ELEMENT_THEORY = SGP/SGP4

EPOCH          = 2025-12-16T22:56:51.979488
MEAN_MOTION    = 15.36221185
ECCENTRICITY   = .00232058
INCLINATION    = 97.6100
RA_OF_ASC_NODE = 347.5816
ARG_OF_PERICENTER = 160.5767
MEAN_ANOMALY   = 199.6366

EPHEMERIS_TYPE = 0
CLASSIFICATION_TYPE = U
NORAD_CAT_ID   = 14208
ELEMENT_SET_NO = 999
REV_AT_EPOCH   = 31744
BSTAR          = .25052782E-3
MEAN_MOTION_DOT = .8836E-4
MEAN_MOTION_DDOT = 0

CCSDS_OMM_VERS = 2.0
CREATION_DATE  = 
ORIGINATOR     = 

OBJECT_NAME    = COSMOS 1536
OBJECT_ID      = 1984-013A
CENTER_NAME    = EARTH
REF_FRAME      = TEME
TIME_SYSTEM    = UTC
MEAN_ELEMENT_THEORY = SGP/SGP4

EPOCH          = 2025-12-16T22:43:23.702304
MEAN_MOTION    = 15.22564607
ECCENTRICITY   = .00138162
INCLINATION    = 82.5448
RA_OF_ASC_NODE = 189.9920
ARG_OF_PERICENTER = 209.7616
MEAN_ANOMALY   = 150.2836

EPHEMERIS_TYPE = 0
CLASSIFICATION_TYPE = U
NORAD_CAT_ID   = 14699
ELEMENT_SET_NO = 999
REV_AT_EPOCH   = 26002
BSTAR          = .19344243E-3
MEAN_MOTION_DOT = .4532E-4
MEAN_MOTION_DDOT = 0

CCSDS_OMM_VERS = 2.0
CREATION_DATE  = 
ORIGINATOR     = 

OBJECT_NAME    = SL-14 R/B
OBJECT_ID      = 1984-027B
CENTER_NAME    = EARTH
REF_FRAME      = TEME
TIME_SYSTEM    = UTC
MEAN_ELEMENT_THEORY = SGP/SGP4

EPOCH          = 2025-12-17T00:00:08.392032
MEAN_MOTION    = 14.85879149
ECCENTRICITY   = .00164666
INCLINATION    = 82.5414
RA_OF_ASC_NODE = 322.5605
ARG_OF_PERICENTER = 245.3354
MEAN_ANOMALY   = 114.6149

EPHEMERIS_TYPE = 0
CLASSIFICATION_TYPE = U
NORAD_CAT_ID   = 14820
ELEMENT_SET_NO = 999
REV_AT_EPOCH   = 23535
BSTAR          = .53943073E-4
MEAN_MOTION_DOT = .495E-5
MEAN_MOTION_DDOT = 0

